[Satellite]
VERSION=1.1
NAME=APSTAR 1A
NICKNAME=APSTAR 1A
TLE1=1 23943U 96039A   11059.02633328  .00000084  00000-0  10000-3 0  5397
TLE2=2 23943   5.1749  66.2684 0001256 280.4737 231.6997  1.00270016 53693
